{
  "norad_id": 60999,
  "name": "STARLINK-11270 [DTC]",
  "history": [
    {
      "epoch": "2026-03-28T15:54:51.636960Z",
      "apogee_km": 360.4015069602892,
      "perigee_km": 358.77771484706227,
      "latitude_deg": 2.12607017904825e-05,
      "longitude_deg": 123.00804713838092,
      "height_km": 360.15767974517746,
      "semi_major_axis_km": 6737.7266109036755,
      "eccentricity": 0.0001205,
      "inclination_deg": 53.1579,
      "raan_deg": 187.8035,
      "arg_perigee_deg": 64.8229,
      "mean_anomaly_deg": 295.2914,
      "mean_motion_rev_day": 15.69757925
    }
  ]
}